HTV-X1                  
1 66174U 25241A   26063.15679535  .00010207  00000+0  19684-3 0  9996
2 66174  51.6316  99.7104 0008201 155.0339 205.1047 15.48434477555758
SZ-21 MODULE            
1 66515U 25246C   26062.76916662  .00044751  00000+0  39281-3 0  9997
2 66515  41.4730 239.7930 0001447 287.9355  72.1329 15.68011820 17141
SHENZHOU-22             
1 66645U 25272A   26063.14773523  .00030185  00000+0  35996-3 0  9995
2 66645  41.4658 241.8750 0006828 240.6834 119.3323 15.60380094268256
SOYUZ-MS 28             
1 66664U 25275A   26063.15679535  .00010207  00000+0  19684-3 0  9997
2 66664  51.6316  99.7104 0008201 155.0339 205.1047 15.48434477555910
DUPLEX                  
1 66906U 98067XS  26063.12706061  .00039457  00000+0  56459-3 0  9996
2 66906  51.6284  97.2659 0002066  91.2165 268.9063 15.55805155 14268
ISS OBJECT XT           
1 66907U 98067XT  26063.10271002  .00174880  00000+0  15595-2 0  9992
2 66907  51.6245  94.0932 0004672  41.2658 318.8690 15.67342858 14307
ISS OBJECT XU           
1 66908U 98067XU  26063.10128458  .00178631  00000+0  15859-2 0  9990
2 66908  51.6244  94.0803 0004715  45.5168 314.6213 15.67438854 14302
SILVERSAT               
1 66909U 98067XV  26063.11194191  .00216262  00000+0  17275-2 0  9996
2 66909  51.6238  93.4007 0005539  42.4884 317.6541 15.69884457 14315
ISS OBJECT XW           
1 66910U 98067XW  26062.45772056  .00132206  00000+0  12184-2 0  9995
2 66910  51.6243  97.2785 0004869  51.9689 308.1746 15.66680726 14201
ISS OBJECT XX           
1 66911U 98067XX  26063.18253700  .00282325  00000+0  20053-2 0  9999
2 66911  51.6215  92.3562 0006925  49.2793 310.8806 15.72471487 14320
ISS OBJECT XY           
1 66912U 98067XY  26063.08333605  .00107173  00000+0  11699-2 0  9995
2 66912  51.6268  95.4706 0002906  56.5889 303.5383 15.62516630 14277
ISS OBJECT XZ           
1 67683U 98067XZ  26063.12412783  .00048104  00000+0  80590-3 0  9996
2 67683  51.6304  99.4942 0009483 167.0393 193.0841 15.51316710  3921
GXIBA-1                 
1 67684U 98067YA  26062.26849864  .00074906  00000+0  11656-2 0  9990
2 67684  51.6298 103.5313 0010978 154.9471 205.2054 15.53164734  3792
CORAL                   
1 67685U 98067YB  26063.12087566  .00051311  00000+0  84892-3 0  9998
2 67685  51.6306  99.4725 0011412 163.4615 196.6749 15.51617539  3925
ISS OBJECT YC           
1 67686U 98067YC  26063.11706777  .00065825  00000+0  10702-2 0  9993
2 67686  51.6306  99.4495 0007705 130.8596 229.3063 15.52036952  3924
LEOPARD                 
1 67687U 98067YD  26063.12237470  .00050832  00000+0  84698-3 0  9992
2 67687  51.6307  99.4833 0007776 135.4540 224.7075 15.51460926  3844
ISS OBJECT YE           
1 67688U 98067YE  26062.41037585  .00049325  00000+0  81368-3 0  9995
2 67688  51.6313 102.9800 0007700 129.5648 230.6023 15.51755615  3735
